*******************************************************************************
Ephemeris / WWW_USER Mon Jul 15 19:19:18 2024 Pasadena, USA      / Horizons    
*******************************************************************************
Target body name: (2018 YU2)                      {source: JPL#5}
Center body name: Earth (399)                     {source: DE441}
Center-site name: Gemini South Obs., Cerro Pachon
*******************************************************************************
Start time      : A.D. 2018-Oct-13 23:00:00.0000 UT      
Stop  time      : A.D. 2018-Oct-14 09:57:00.0000 UT      
Step-size       : 1 minutes
*******************************************************************************
Target pole/equ : undefined
Target radii    : undefined                                                    
Center geodetic : 289.2634, -30.2406227, 2.71233  {E-lon(deg),Lat(deg),Alt(km)}
Center cylindric: 289.2634,5517.21435,-3194.81213 {E-lon(deg),Dxy(km),Dz(km)}
Center pole/equ : ITRF93                          {East-longitude positive}
Center radii    : 6378.137, 6378.137, 6356.752 km {Equator_a, b, pole_c}       
Target primary  : Sun
Vis. interferer : MOON (R_eq= 1737.400) km        {source: DE441}
Rel. light bend : Sun                             {source: DE441}
Rel. lght bnd GM: 1.3271E+11 km^3/s^2                                          
Small-body perts: Yes                             {source: SB441-N16}
Atmos refraction: NO (AIRLESS)
RA format       : HMS
Time format     : CAL 
Calendar mode   : Mixed Julian/Gregorian
RTS-only print  : NO       
EOP file        : eop.240715.p241008                                           
EOP coverage    : DATA-BASED 1962-JAN-20 TO 2024-JUL-15. PREDICTS-> 2024-OCT-07
Units conversion: 1 au= 149597870.700 km, c= 299792.458 km/s, 1 day= 86400.0 s 
Table cut-offs 1: Elevation (-90.0deg=NO ),Airmass (>38.000=NO), Daylight (YES)
Table cut-offs 2: Solar elongation (  0.0,180.0=NO ),Local Hour Angle( 0.0=NO )
Table cut-offs 3: RA/DEC angular rate (     0.0=NO )                           
*******************************************************************************
Initial IAU76/J2000 heliocentric ecliptic osculating elements (au, days, deg.):
  EPOCH=  2458477.5 ! 2018-Dec-25.00 (TDB)         Residual RMS= .22887        
   EC= .1533598773405833   QR= .920984914841031    TP= 2458549.1486254167      
   OM= 279.4515303175068   W=  253.4059234937716   IN= 2.850769624588425       
  Equivalent ICRF heliocentric cartesian coordinates (au, au/d):
   X=-6.842297687009524E-02  Y= 9.429126817220428E-01  Z= 4.143187104036840E-01
  VX=-1.695115058702848E-02 VY=-2.997207899955317E-03 VZ=-2.239432528215744E-03
Asteroid physical parameters (km, seconds, rotational period in hours):        
   GM= n.a.                RAD= n.a.               ROTPER= n.a.                
   H= 26.5                 G= .150                 B-V= n.a.                   
                           ALBEDO= n.a.            STYP= n.a.                  
*******************************************************************************
 Date__(UT)__HR:MN     R.A._________(ICRF)_________DEC
******************************************************
$$SOE
 2018-Oct-14 05:09     05 27 22.797778 +32 05 28.21423
 2018-Oct-14 05:10     05 27 22.889328 +32 05 28.50244
 2018-Oct-14 05:11     05 27 22.980852 +32 05 28.79050
 2018-Oct-14 05:12     05 27 23.072350 +32 05 29.07843
 2018-Oct-14 05:13     05 27 23.163821 +32 05 29.36621
 2018-Oct-14 05:14     05 27 23.255266 +32 05 29.65386
 2018-Oct-14 05:15     05 27 23.346685 +32 05 29.94137
 2018-Oct-14 05:16     05 27 23.438078 +32 05 30.22873
 2018-Oct-14 05:17     05 27 23.529446 +32 05 30.51595
 2018-Oct-14 05:18     05 27 23.620787 +32 05 30.80303
 2018-Oct-14 05:19     05 27 23.712102 +32 05 31.08997
 2018-Oct-14 05:20     05 27 23.803392 +32 05 31.37676
 2018-Oct-14 05:21     05 27 23.894657 +32 05 31.66341
 2018-Oct-14 05:22     05 27 23.985896 +32 05 31.94991
 2018-Oct-14 05:23     05 27 24.077109 +32 05 32.23626
 2018-Oct-14 05:24     05 27 24.168298 +32 05 32.52247
 2018-Oct-14 05:25     05 27 24.259461 +32 05 32.80853
 2018-Oct-14 05:26     05 27 24.350599 +32 05 33.09444
 2018-Oct-14 05:27     05 27 24.441712 +32 05 33.38020
 2018-Oct-14 05:28     05 27 24.532800 +32 05 33.66581
 2018-Oct-14 05:29     05 27 24.623863 +32 05 33.95126
 2018-Oct-14 05:30     05 27 24.714902 +32 05 34.23657
 2018-Oct-14 05:31     05 27 24.805915 +32 05 34.52173
 2018-Oct-14 05:32     05 27 24.896905 +32 05 34.80673
 2018-Oct-14 05:33     05 27 24.987870 +32 05 35.09157
 2018-Oct-14 05:34     05 27 25.078810 +32 05 35.37627
 2018-Oct-14 05:35     05 27 25.169727 +32 05 35.66080
 2018-Oct-14 05:36     05 27 25.260619 +32 05 35.94519
 2018-Oct-14 05:37     05 27 25.351487 +32 05 36.22941
 2018-Oct-14 05:38     05 27 25.442332 +32 05 36.51348
 2018-Oct-14 05:39     05 27 25.533152 +32 05 36.79739
 2018-Oct-14 05:40     05 27 25.623949 +32 05 37.08114
 2018-Oct-14 05:41     05 27 25.714722 +32 05 37.36473
 2018-Oct-14 05:42     05 27 25.805471 +32 05 37.64816
 2018-Oct-14 05:43     05 27 25.896198 +32 05 37.93143
 2018-Oct-14 05:44     05 27 25.986900 +32 05 38.21453
 2018-Oct-14 05:45     05 27 26.077580 +32 05 38.49748
 2018-Oct-14 05:46     05 27 26.168236 +32 05 38.78026
 2018-Oct-14 05:47     05 27 26.258870 +32 05 39.06288
 2018-Oct-14 05:48     05 27 26.349480 +32 05 39.34534
 2018-Oct-14 05:49     05 27 26.440068 +32 05 39.62763
 2018-Oct-14 05:50     05 27 26.530632 +32 05 39.90975
 2018-Oct-14 05:51     05 27 26.621175 +32 05 40.19171
 2018-Oct-14 05:52     05 27 26.711694 +32 05 40.47350
 2018-Oct-14 05:53     05 27 26.802192 +32 05 40.75512
 2018-Oct-14 05:54     05 27 26.892667 +32 05 41.03658
 2018-Oct-14 05:55     05 27 26.983120 +32 05 41.31786
 2018-Oct-14 05:56     05 27 27.073551 +32 05 41.59898
 2018-Oct-14 05:57     05 27 27.163959 +32 05 41.87993
 2018-Oct-14 05:58     05 27 27.254346 +32 05 42.16070
 2018-Oct-14 05:59     05 27 27.344711 +32 05 42.44131
 2018-Oct-14 06:00     05 27 27.435055 +32 05 42.72174
 2018-Oct-14 06:01     05 27 27.525377 +32 05 43.00200
 2018-Oct-14 06:02     05 27 27.615677 +32 05 43.28208
 2018-Oct-14 06:03     05 27 27.705956 +32 05 43.56200
 2018-Oct-14 06:04     05 27 27.796214 +32 05 43.84173
 2018-Oct-14 06:05     05 27 27.886451 +32 05 44.12130
 2018-Oct-14 06:06     05 27 27.976667 +32 05 44.40068
 2018-Oct-14 06:07     05 27 28.066862 +32 05 44.67989
 2018-Oct-14 06:08     05 27 28.157036 +32 05 44.95893
 2018-Oct-14 06:09     05 27 28.247190 +32 05 45.23778
 2018-Oct-14 06:10     05 27 28.337323 +32 05 45.51646
 2018-Oct-14 06:11     05 27 28.427435 +32 05 45.79496
 2018-Oct-14 06:12     05 27 28.517527 +32 05 46.07328
 2018-Oct-14 06:13     05 27 28.607599 +32 05 46.35142
 2018-Oct-14 06:14     05 27 28.697651 +32 05 46.62937
 2018-Oct-14 06:15     05 27 28.787683 +32 05 46.90715
 2018-Oct-14 06:16     05 27 28.877695 +32 05 47.18475
 2018-Oct-14 06:17     05 27 28.967687 +32 05 47.46216
 2018-Oct-14 06:18     05 27 29.057660 +32 05 47.73939
 2018-Oct-14 06:19     05 27 29.147613 +32 05 48.01644
 2018-Oct-14 06:20     05 27 29.237547 +32 05 48.29330
 2018-Oct-14 06:21     05 27 29.327461 +32 05 48.56998
 2018-Oct-14 06:22     05 27 29.417357 +32 05 48.84647
 2018-Oct-14 06:23     05 27 29.507233 +32 05 49.12278
 2018-Oct-14 06:24     05 27 29.597090 +32 05 49.39890
 2018-Oct-14 06:25     05 27 29.686928 +32 05 49.67483
 2018-Oct-14 06:26     05 27 29.776748 +32 05 49.95058
 2018-Oct-14 06:27     05 27 29.866549 +32 05 50.22614
 2018-Oct-14 06:28     05 27 29.956332 +32 05 50.50151
 2018-Oct-14 06:29     05 27 30.046096 +32 05 50.77669
 2018-Oct-14 06:30     05 27 30.135842 +32 05 51.05168
 2018-Oct-14 06:31     05 27 30.225570 +32 05 51.32648
 2018-Oct-14 06:32     05 27 30.315280 +32 05 51.60109
 2018-Oct-14 06:33     05 27 30.404972 +32 05 51.87551
 2018-Oct-14 06:34     05 27 30.494647 +32 05 52.14974
 2018-Oct-14 06:35     05 27 30.584303 +32 05 52.42378
 2018-Oct-14 06:36     05 27 30.673943 +32 05 52.69762
 2018-Oct-14 06:37     05 27 30.763565 +32 05 52.97127
 2018-Oct-14 06:38     05 27 30.853169 +32 05 53.24473
 2018-Oct-14 06:39     05 27 30.942757 +32 05 53.51799
 2018-Oct-14 06:40     05 27 31.032327 +32 05 53.79106
 2018-Oct-14 06:41     05 27 31.121881 +32 05 54.06393
 2018-Oct-14 06:42     05 27 31.211417 +32 05 54.33661
 2018-Oct-14 06:43     05 27 31.300938 +32 05 54.60909
 2018-Oct-14 06:44     05 27 31.390441 +32 05 54.88137
 2018-Oct-14 06:45     05 27 31.479928 +32 05 55.15346
 2018-Oct-14 06:46     05 27 31.569399 +32 05 55.42535
 2018-Oct-14 06:47     05 27 31.658854 +32 05 55.69704
 2018-Oct-14 06:48     05 27 31.748293 +32 05 55.96854
 2018-Oct-14 06:49     05 27 31.837716 +32 05 56.23983
 2018-Oct-14 06:50     05 27 31.927123 +32 05 56.51093
 2018-Oct-14 06:51     05 27 32.016515 +32 05 56.78182
 2018-Oct-14 06:52     05 27 32.105891 +32 05 57.05252
 2018-Oct-14 06:53     05 27 32.195251 +32 05 57.32301
 2018-Oct-14 06:54     05 27 32.284597 +32 05 57.59330
 2018-Oct-14 06:55     05 27 32.373927 +32 05 57.86339
 2018-Oct-14 06:56     05 27 32.463242 +32 05 58.13328
 2018-Oct-14 06:57     05 27 32.552542 +32 05 58.40297
 2018-Oct-14 06:58     05 27 32.641828 +32 05 58.67245
 2018-Oct-14 06:59     05 27 32.731099 +32 05 58.94173
 2018-Oct-14 07:00     05 27 32.820356 +32 05 59.21081
 2018-Oct-14 07:01     05 27 32.909598 +32 05 59.47968
 2018-Oct-14 07:02     05 27 32.998826 +32 05 59.74835
 2018-Oct-14 07:03     05 27 33.088039 +32 06 00.01681
 2018-Oct-14 07:04     05 27 33.177239 +32 06 00.28507
 2018-Oct-14 07:05     05 27 33.266425 +32 06 00.55312
 2018-Oct-14 07:06     05 27 33.355597 +32 06 00.82096
 2018-Oct-14 07:07     05 27 33.444756 +32 06 01.08860
 2018-Oct-14 07:08     05 27 33.533901 +32 06 01.35603
 2018-Oct-14 07:09     05 27 33.623033 +32 06 01.62326
 2018-Oct-14 07:10     05 27 33.712152 +32 06 01.89027
 2018-Oct-14 07:11     05 27 33.801258 +32 06 02.15708
